<?xml version="1.0" encoding="UTF-8"?>
<kml xmlns="http://www.opengis.net/kml/2.2">
  <Document>
    <name>12127aab-02aa-4e98-890a-f17523ebba0c.ulg</name>
    <description>GNSS track extracted from 12127aab-02aa-4e98-890a-f17523ebba0c.ulg by ulog_forensic_extractor v1.0.0. SHA-256: 68d1020f688109f027dba08d2950247cc0ae34aaefdcf37e4a7d60838f3e1aa3</description>
    <Style id="track"><LineStyle><color>ff0000ff</color><width>4</width></LineStyle></Style>
    <Placemark>
      <name>Flight path</name>
      <styleUrl>#track</styleUrl>
      <LineString><extrude>1</extrude><tessellate>1</tessellate><altitudeMode>absolute</altitudeMode>
        <coordinates>10.4082151,63.4170622,66.81 10.4082146,63.4170612,66.69 10.4082149,63.4170601,66.54 10.4082152,63.4170594,66.35 10.4082152,63.4170587,66.20 10.4082156,63.4170578,66.11 10.4082163,63.4170570,65.89 10.4082166,63.4170561,65.61 10.4082164,63.4170553,65.31 10.4082164,63.4170547,65.03 10.4082170,63.4170538,64.85 10.4082173,63.4170531,64.62 10.4082180,63.4170525,64.45 10.4082185,63.4170519,64.28 10.4082189,63.4170513,64.12 10.4082195,63.4170509,63.98 10.4082203,63.4170503,63.89 10.4082204,63.4170499,63.84 10.4082212,63.4170494,63.76 10.4082219,63.4170488,63.60 10.4082223,63.4170483,63.47 10.4082232,63.4170479,63.47 10.4082240,63.4170474,63.44 10.4082248,63.4170471,63.37 10.4082250,63.4170468,63.27 10.4082252,63.4170465,63.16 10.4082254,63.4170463,63.09 10.4082256,63.4170461,63.02 10.4082257,63.4170460,62.96 10.4082265,63.4170458,62.94 10.4082269,63.4170458,62.94 10.4082271,63.4170457,62.98</coordinates>
      </LineString>
    </Placemark>
  </Document>
</kml>
